SNAP-3 JIMI             
1 40975U 15058M   26068.63164788  .00007303  00000+0  51665-3 0  9997
2 40975  64.7662 174.4840 0105534  96.5110 264.8035 15.01135599 99270
STARLINK-4101           
1 53142U 22083L   26068.52105499 -.00000112  00000+0  11054-4 0  9996
2 53142  53.2176 174.8509 0001198  88.3668 271.7462 15.08842579201206
